ONEWEB-0716             
1 55177U 23004AP  24301.80718534  .00000070  00000+0  14628-3 0  9990
2 55177  87.9074 124.8896 0001670  89.8187 270.3136 13.17650798 88910
ONEWEB-0717             
1 55178U 23004AQ  24302.01809270  .00000166  00000+0  39515-3 0  9991
2 55178  87.9070 124.8098 0000669  93.5365 266.5843 13.17652323 88994
ONEWEB-0719             
1 55179U 23004AR  24302.02823893  .00000161  00000+0  38114-3 0  9999
2 55179  87.9068 124.7930 0001657  95.9638 264.1683 13.17648942 88946
ONEWEB-0530             
1 55796U 23029A   24301.67238829  .00000121  00000+0  26597-3 0  9998
2 55796  87.9295  33.3384 0001492 121.0852 239.0427 13.20771067 82273
ONEWEB-0534             
1 55797U 23029B   24301.73552768  .00000048  00000+0  87189-4 0  9990
2 55797  87.9297  33.3333 0001863 101.9350 258.1992 13.20771877 82281
ONEWEB-0556             
1 55798U 23029C   24301.74183762  .00000047  00000+0  84296-4 0  9991
2 55798  87.9298  33.3248 0002244 123.9577 236.1770 13.20773043 82284
ONEWEB-0562             
1 55799U 23029D   24301.95647967  .00000030  00000+0  40814-4 0  9997
2 55799  87.9295  33.2738 0001832 135.6785 224.4495 13.20769441 82997
ONEWEB-0563             
1 55800U 23029E   24301.72291561  .00000053  00000+0  99554-4 0  9990
2 55800  87.9296  33.3349 0002093  99.9198 260.2171 13.20770990 82271
